STARLINK-34544          
1 64865U 25152Z   26065.31985893  .00009806  00000+0  68307-3 0  9998
2 64865  97.6021 282.2374 0002337  87.0198 273.1296 15.05638926 34914
STARLINK-34647          
1 64904U 25157A   26065.05552256  .00042679  00000+0  14437-2 0  9990
2 64904  53.1595   2.8197 0001002 119.9258 240.1843 15.30225681 35551
STARLINK-34273          
1 64905U 25157B   26065.24091541  .00048807  00000+0  16487-2 0  9993
2 64905  53.1604   1.8408 0000974  90.9046 269.2067 15.30210885 35603
STARLINK-34713          
1 64906U 25157C   26065.22508771  .00040506  00000+0  13716-2 0  9990
2 64906  53.1618   1.7436 0000913  87.5343 272.5762 15.30217808 35548
STARLINK-34712          
1 64907U 25157D   26065.19553779  .00039390  00000+0  13349-2 0  9996
2 64907  53.1602   1.5589 0001117  71.6460 288.4662 15.30203527 35593
STARLINK-34702          
1 64908U 25157E   26065.08707145  .00037735  00000+0  12792-2 0  9995
2 64908  53.1623   2.3023 0001220  84.4771 275.6369 15.30212285 35572
STARLINK-34687          
1 64909U 25157F   26065.23459151  .00036919  00000+0  12524-2 0  9990
2 64909  53.1604   1.8027 0001443  48.6427 311.4698 15.30200429 35545
STARLINK-34642          
1 64910U 25157G   26065.20292670  .00040764  00000+0  13803-2 0  9994
2 64910  53.1598   1.6086 0001171  85.3200 274.7934 15.30214785 35596
STARLINK-34718          
1 64911U 25157H   26065.17982067  .00028111  00000+0  95733-3 0  9992
2 64911  53.1606   2.1712 0000833 100.0405 260.0690 15.30210500 35582
STARLINK-34711          
1 64912U 25157J   26065.23880673  .00042934  00000+0  14531-2 0  9995
2 64912  53.1600   1.8293 0001015  80.9455 279.1660 15.30205600 35595
STARLINK-34659          
1 64913U 25157K   26065.21875499  .00016384  00000+0  56389-3 0  9992
2 64913  53.1617   1.7011 0001174 102.3734 257.7398 15.30211062 35540
STARLINK-34571          
1 64914U 25157L   26065.24724045  .00028686  00000+0  97614-3 0  9990
2 64914  53.1599   1.8774 0000893  95.2371 264.8732 15.30226024 35546
STARLINK-34636          
1 64915U 25157M   26065.23036179  .00049109  00000+0  16590-2 0  9990
2 64915  53.1613   1.7725 0001113  82.7320 277.3807 15.30206345 35591
STARLINK-34695          
1 64916U 25157N   26065.09775587  .00048790  00000+0  12143-2 0  9993
2 64916  53.1607   0.2324 0000979  57.4535 302.6564 15.39811663 35608
STARLINK-34653          
1 64917U 25157P   26065.18931845  .00029837  00000+0  10140-2 0  9991
2 64917  53.1604   2.2254 0000866  89.0118 271.0982 15.30245897 35539
STARLINK-34611          
1 64918U 25157Q   26065.25357727  .00028001  00000+0  95438-3 0  9997
2 64918  53.1598   1.9204 0001197  94.8091 265.3046 15.30185551 35598
