[{"OBJECT_NAME":"STARLINK-34544","OBJECT_ID":"2025-152Z","EPOCH":"2026-03-06T07:40:35.811552","MEAN_MOTION":15.05638926,"ECCENTRICITY":0.00023379,"INCLINATION":97.6021,"RA_OF_ASC_NODE":282.2374,"ARG_OF_PERICENTER":87.0198,"MEAN_ANOMALY":273.1296,"EPHEMERIS_TYPE":0,"CLASSIFICATION_TYPE":"U","NORAD_CAT_ID":64865,"ELEMENT_SET_NO":999,"REV_AT_EPOCH":3491,"BSTAR":0.00068306951,"MEAN_MOTION_DOT":9.806e-5,"MEAN_MOTION_DDOT":0},{"OBJECT_NAME":"STARLINK-34647","OBJECT_ID":"2025-157A","EPOCH":"2026-03-06T01:19:57.149184","MEAN_MOTION":15.30225681,"ECCENTRICITY":0.00010025,"INCLINATION":53.1595,"RA_OF_ASC_NODE":2.8197,"ARG_OF_PERICENTER":119.9258,"MEAN_ANOMALY":240.1843,"EPHEMERIS_TYPE":0,"CLASSIFICATION_TYPE":"U","NORAD_CAT_ID":64904,"ELEMENT_SET_NO":999,"REV_AT_EPOCH":3555,"BSTAR":0.0014436969,"MEAN_MOTION_DOT":0.00042679,"MEAN_MOTION_DDOT":0},{"OBJECT_NAME":"STARLINK-34273","OBJECT_ID":"2025-157B","EPOCH":"2026-03-06T05:46:55.091424","MEAN_MOTION":15.30210885,"ECCENTRICITY":9.747e-5,"INCLINATION":53.1604,"RA_OF_ASC_NODE":1.8408,"ARG_OF_PERICENTER":90.9046,"MEAN_ANOMALY":269.2067,"EPHEMERIS_TYPE":0,"CLASSIFICATION_TYPE":"U","NORAD_CAT_ID":64905,"ELEMENT_SET_NO":999,"REV_AT_EPOCH":3560,"BSTAR":0.0016486687,"MEAN_MOTION_DOT":0.00048807,"MEAN_MOTION_DDOT":0},{"OBJECT_NAME":"STARLINK-34713","OBJECT_ID":"2025-157C","EPOCH":"2026-03-06T05:24:07.578144","MEAN_MOTION":15.30217808,"ECCENTRICITY":9.132e-5,"INCLINATION":53.1618,"RA_OF_ASC_NODE":1.7436,"ARG_OF_PERICENTER":87.5343,"MEAN_ANOMALY":272.5762,"EPHEMERIS_TYPE":0,"CLASSIFICATION_TYPE":"U","NORAD_CAT_ID":64906,"ELEMENT_SET_NO":999,"REV_AT_EPOCH":3554,"BSTAR":0.0013715513,"MEAN_MOTION_DOT":0.00040506,"MEAN_MOTION_DDOT":0},{"OBJECT_NAME":"STARLINK-34712","OBJECT_ID":"2025-157D","EPOCH":"2026-03-06T04:41:34.465056","MEAN_MOTION":15.30203527,"ECCENTRICITY":0.00011173,"INCLINATION":53.1602,"RA_OF_ASC_NODE":1.5589,"ARG_OF_PERICENTER":71.646,"MEAN_ANOMALY":288.4662,"EPHEMERIS_TYPE":0,"CLASSIFICATION_TYPE":"U","NORAD_CAT_ID":64907,"ELEMENT_SET_NO":999,"REV_AT_EPOCH":3559,"BSTAR":0.0013348752,"MEAN_MOTION_DOT":0.0003939,"MEAN_MOTION_DDOT":0},{"OBJECT_NAME":"STARLINK-34702","OBJECT_ID":"2025-157E","EPOCH":"2026-03-06T02:05:22.973280","MEAN_MOTION":15.30212285,"ECCENTRICITY":0.00012206,"INCLINATION":53.1623,"RA_OF_ASC_NODE":2.3023,"ARG_OF_PERICENTER":84.4771,"MEAN_ANOMALY":275.6369,"EPHEMERIS_TYPE":0,"CLASSIFICATION_TYPE":"U","NORAD_CAT_ID":64908,"ELEMENT_SET_NO":999,"REV_AT_EPOCH":3557,"BSTAR":0.0012792345,"MEAN_MOTION_DOT":0.00037735,"MEAN_MOTION_DDOT":0},{"OBJECT_NAME":"STARLINK-34687","OBJECT_ID":"2025-157F","EPOCH":"2026-03-06T05:37:48.706464","MEAN_MOTION":15.30200429,"ECCENTRICITY":0.00014434,"INCLINATION":53.1604,"RA_OF_ASC_NODE":1.8027,"ARG_OF_PERICENTER":48.6427,"MEAN_ANOMALY":311.4698,"EPHEMERIS_TYPE":0,"CLASSIFICATION_TYPE":"U","NORAD_CAT_ID":64909,"ELEMENT_SET_NO":999,"REV_AT_EPOCH":3554,"BSTAR":0.0012524196,"MEAN_MOTION_DOT":0.00036919,"MEAN_MOTION_DDOT":0},{"OBJECT_NAME":"STARLINK-34642","OBJECT_ID":"2025-157G","EPOCH":"2026-03-06T04:52:12.866880","MEAN_MOTION":15.30214785,"ECCENTRICITY":0.00011711,"INCLINATION":53.1598,"RA_OF_ASC_NODE":1.6086,"ARG_OF_PERICENTER":85.32,"MEAN_ANOMALY":274.7934,"EPHEMERIS_TYPE":0,"CLASSIFICATION_TYPE":"U","NORAD_CAT_ID":64910,"ELEMENT_SET_NO":999,"REV_AT_EPOCH":3559,"BSTAR":0.0013802967,"MEAN_MOTION_DOT":0.00040764,"MEAN_MOTION_DDOT":0},{"OBJECT_NAME":"STARLINK-34718","OBJECT_ID":"2025-157H","EPOCH":"2026-03-06T04:18:56.505888","MEAN_MOTION":15.302105,"ECCENTRICITY":8.339e-5,"INCLINATION":53.1606,"RA_OF_ASC_NODE":2.1712,"ARG_OF_PERICENTER":100.0405,"MEAN_ANOMALY":260.069,"EPHEMERIS_TYPE":0,"CLASSIFICATION_TYPE":"U","NORAD_CAT_ID":64911,"ELEMENT_SET_NO":999,"REV_AT_EPOCH":3558,"BSTAR":0.00095733265,"MEAN_MOTION_DOT":0.00028111,"MEAN_MOTION_DDOT":0},{"OBJECT_NAME":"STARLINK-34711","OBJECT_ID":"2025-157J","EPOCH":"2026-03-06T05:43:52.901472","MEAN_MOTION":15.302056,"ECCENTRICITY":0.00010154,"INCLINATION":53.16,"RA_OF_ASC_NODE":1.8293,"ARG_OF_PERICENTER":80.9455,"MEAN_ANOMALY":279.166,"EPHEMERIS_TYPE":0,"CLASSIFICATION_TYPE":"U","NORAD_CAT_ID":64912,"ELEMENT_SET_NO":999,"REV_AT_EPOCH":3559,"BSTAR":0.0014530967,"MEAN_MOTION_DOT":0.00042934,"MEAN_MOTION_DDOT":0},{"OBJECT_NAME":"STARLINK-34659","OBJECT_ID":"2025-157K","EPOCH":"2026-03-06T05:15:00.431136","MEAN_MOTION":15.30211062,"ECCENTRICITY":0.00011741,"INCLINATION":53.1617,"RA_OF_ASC_NODE":1.7011,"ARG_OF_PERICENTER":102.3734,"MEAN_ANOMALY":257.7398,"EPHEMERIS_TYPE":0,"CLASSIFICATION_TYPE":"U","NORAD_CAT_ID":64913,"ELEMENT_SET_NO":999,"REV_AT_EPOCH":3554,"BSTAR":0.00056389139,"MEAN_MOTION_DOT":0.00016384,"MEAN_MOTION_DDOT":0},{"OBJECT_NAME":"STARLINK-34571","OBJECT_ID":"2025-157L","EPOCH":"2026-03-06T05:56:01.574880","MEAN_MOTION":15.30226024,"ECCENTRICITY":8.93e-5,"INCLINATION":53.1599,"RA_OF_ASC_NODE":1.8774,"ARG_OF_PERICENTER":95.2371,"MEAN_ANOMALY":264.8732,"EPHEMERIS_TYPE":0,"CLASSIFICATION_TYPE":"U","NORAD_CAT_ID":64914,"ELEMENT_SET_NO":999,"REV_AT_EPOCH":3554,"BSTAR":0.00097614319,"MEAN_MOTION_DOT":0.00028686,"MEAN_MOTION_DDOT":0},{"OBJECT_NAME":"STARLINK-34636","OBJECT_ID":"2025-157M","EPOCH":"2026-03-06T05:31:43.258656","MEAN_MOTION":15.30206345,"ECCENTRICITY":0.00011131,"INCLINATION":53.1613,"RA_OF_ASC_NODE":1.7725,"ARG_OF_PERICENTER":82.732,"MEAN_ANOMALY":277.3807,"EPHEMERIS_TYPE":0,"CLASSIFICATION_TYPE":"U","NORAD_CAT_ID":64915,"ELEMENT_SET_NO":999,"REV_AT_EPOCH":3559,"BSTAR":0.00165895,"MEAN_MOTION_DOT":0.00049109,"MEAN_MOTION_DDOT":0},{"OBJECT_NAME":"STARLINK-34695","OBJECT_ID":"2025-157N","EPOCH":"2026-03-06T02:20:46.107168","MEAN_MOTION":15.39811663,"ECCENTRICITY":9.796e-5,"INCLINATION":53.1607,"RA_OF_ASC_NODE":0.2324,"ARG_OF_PERICENTER":57.4535,"MEAN_ANOMALY":302.6564,"EPHEMERIS_TYPE":0,"CLASSIFICATION_TYPE":"U","NORAD_CAT_ID":64916,"ELEMENT_SET_NO":999,"REV_AT_EPOCH":3560,"BSTAR":0.0012142746,"MEAN_MOTION_DOT":0.0004879,"MEAN_MOTION_DDOT":0},{"OBJECT_NAME":"STARLINK-34653","OBJECT_ID":"2025-157P","EPOCH":"2026-03-06T04:32:37.114080","MEAN_MOTION":15.30245897,"ECCENTRICITY":8.664e-5,"INCLINATION":53.1604,"RA_OF_ASC_NODE":2.2254,"ARG_OF_PERICENTER":89.0118,"MEAN_ANOMALY":271.0982,"EPHEMERIS_TYPE":0,"CLASSIFICATION_TYPE":"U","NORAD_CAT_ID":64917,"ELEMENT_SET_NO":999,"REV_AT_EPOCH":3553,"BSTAR":0.0010140259,"MEAN_MOTION_DOT":0.00029837,"MEAN_MOTION_DDOT":0},{"OBJECT_NAME":"STARLINK-34611","OBJECT_ID":"2025-157Q","EPOCH":"2026-03-06T06:05:09.076128","MEAN_MOTION":15.30185551,"ECCENTRICITY":0.00011975,"INCLINATION":53.1598,"RA_OF_ASC_NODE":1.9204,"ARG_OF_PERICENTER":94.8091,"MEAN_ANOMALY":265.3046,"EPHEMERIS_TYPE":0,"CLASSIFICATION_TYPE":"U","NORAD_CAT_ID":64918,"ELEMENT_SET_NO":999,"REV_AT_EPOCH":3559,"BSTAR":0.00095437531,"MEAN_MOTION_DOT":0.00028001,"MEAN_MOTION_DDOT":0}]
